KUIPER-00035            
1 63748U 25088AA  25196.92139325 -.00175623  00000+0 -92737-2 0  9993
2 63748  51.8788  85.6154 0002831  59.2948 300.8308 15.15841894 12389
KUIPER-00037            
1 63749U 25088AB  25196.95194505 -.00210358  00000+0 -10960-1 0  9990
2 63749  51.8794  84.9730 0003190   1.8780 358.2209 15.16485919 13184
KUIPER-00038            
1 63750U 25088AC  25196.93587638  .00011908  00000+0  32875-3 0  9992
2 63750  51.8707  81.2364 0004890  40.3663 319.7686 15.37491158 12230
KUIPER-00039            
1 64500U 25134A   25196.78853574  .00018347  00000+0  54615-3 0  9996
2 64500  51.8676 223.4058 0007395 191.5031 168.5786 15.34736195  4670
KUIPER-00040            
1 64501U 25134B   25196.80153446  .00014952  00000+0  45961-3 0  9993
2 64501  51.8656 223.4847 0010931 205.9397 154.1042 15.33849147  4677
KUIPER-00041            
1 64502U 25134C   25196.92730557 -.00246315  00000+0 -81171-2 0  9995
2 64502  51.8688 222.8321 0008659 198.1530 161.9146 15.31900844  4692
KUIPER-00042            
1 64503U 25134D   25196.79297327  .00015814  00000+0  47642-3 0  9996
2 64503  51.8646 223.4311 0008662 194.7852 165.2881 15.34461875  4676
KUIPER-00043            
1 64504U 25134E   25196.78960258  .00016079  00000+0  48137-3 0  9990
2 64504  51.8686 223.4128 0007928 188.1771 171.9086 15.34653127  4672
